[{"OBJECT_NAME":"NOAA 18","OBJECT_ID":"2005-018A","EPOCH":"2026-04-11T05:45:27.216576","MEAN_MOTION":14.13717775,"ECCENTRICITY":0.00138476,"INCLINATION":98.8118,"RA_OF_ASC_NODE":181.8846,"ARG_OF_PERICENTER":345.6503,"MEAN_ANOMALY":14.4275,"EPHEMERIS_TYPE":0,"CLASSIFICATION_TYPE":"U","NORAD_CAT_ID":28654,"ELEMENT_SET_NO":999,"REV_AT_EPOCH":7685,"BSTAR":3.8878049e-5,"MEAN_MOTION_DOT":3.0e-7,"MEAN_MOTION_DDOT":0},{"OBJECT_NAME":"NOAA 19","OBJECT_ID":"2009-005A","EPOCH":"2026-04-11T05:26:44.141856","MEAN_MOTION":14.13463419,"ECCENTRICITY":0.00132036,"INCLINATION":98.9552,"RA_OF_ASC_NODE":172.0433,"ARG_OF_PERICENTER":216.0556,"MEAN_ANOMALY":143.9727,"EPHEMERIS_TYPE":0,"CLASSIFICATION_TYPE":"U","NORAD_CAT_ID":33591,"ELEMENT_SET_NO":999,"REV_AT_EPOCH":88502,"BSTAR":3.3054154e-5,"MEAN_MOTION_DOT":1.7e-7,"MEAN_MOTION_DDOT":0},{"OBJECT_NAME":"SUOMI NPP","OBJECT_ID":"2011-061A","EPOCH":"2026-04-11T05:41:55.790592","MEAN_MOTION":14.19502781,"ECCENTRICITY":0.00023129,"INCLINATION":98.7908,"RA_OF_ASC_NODE":42.5883,"ARG_OF_PERICENTER":130.7603,"MEAN_ANOMALY":229.3774,"EPHEMERIS_TYPE":0,"CLASSIFICATION_TYPE":"U","NORAD_CAT_ID":37849,"ELEMENT_SET_NO":999,"REV_AT_EPOCH":74894,"BSTAR":5.4571811e-5,"MEAN_MOTION_DOT":7.1e-7,"MEAN_MOTION_DDOT":0},{"OBJECT_NAME":"NOAA 20 (JPSS-1)","OBJECT_ID":"2017-073A","EPOCH":"2026-04-11T04:20:37.976640","MEAN_MOTION":14.19544787,"ECCENTRICITY":0.00021277,"INCLINATION":98.7728,"RA_OF_ASC_NODE":41.2529,"ARG_OF_PERICENTER":93.7634,"MEAN_ANOMALY":266.3785,"EPHEMERIS_TYPE":0,"CLASSIFICATION_TYPE":"U","NORAD_CAT_ID":43013,"ELEMENT_SET_NO":999,"REV_AT_EPOCH":43496,"BSTAR":4.0526229e-5,"MEAN_MOTION_DOT":4.1e-7,"MEAN_MOTION_DDOT":0}]
