NOAA 18                 
1 28654U 05018A   26101.23989834  .00000030  00000+0  38878-4 0  9995
2 28654  98.8118 181.8846 0013847 345.6503  14.4275 14.13717775 76859
NOAA 19                 
1 33591U 09005A   26101.22689979  .00000017  00000+0  33054-4 0  9993
2 33591  98.9552 172.0433 0013203 216.0556 143.9727 14.13463419885027
SUOMI NPP               
1 37849U 11061A   26101.23745128  .00000071  00000+0  54572-4 0  9996
2 37849  98.7908  42.5883 0002312 130.7603 229.3774 14.19502781748946
NOAA 20 (JPSS-1)        
1 43013U 17073A   26101.18099510  .00000041  00000+0  40526-4 0  9997
2 43013  98.7728  41.2529 0002127  93.7634 266.3785 14.19544787434964
